CCSDS_OMM_VERS = 2.0
CREATION_DATE  = 
ORIGINATOR     = 

OBJECT_NAME    = 2025-313Y
OBJECT_ID      = 2025-313Y
CENTER_NAME    = EARTH
REF_FRAME      = TEME
TIME_SYSTEM    = UTC
MEAN_ELEMENT_THEORY = SGP/SGP4

EPOCH          = 2026-01-08T12:57:06.465024
MEAN_MOTION    = 15.20053360
ECCENTRICITY   = .0015057
INCLINATION    = 97.4123
RA_OF_ASC_NODE = 85.8199
ARG_OF_PERICENTER = 199.7516
MEAN_ANOMALY   = 160.3138

EPHEMERIS_TYPE = 0
CLASSIFICATION_TYPE = U
NORAD_CAT_ID   = 67270
ELEMENT_SET_NO = 999
REV_AT_EPOCH   = 167
BSTAR          = .55166E-3
MEAN_MOTION_DOT = .11877E-3
MEAN_MOTION_DDOT = 0

CCSDS_OMM_VERS = 2.0
CREATION_DATE  = 
ORIGINATOR     = 

OBJECT_NAME    = 2025-313Z
OBJECT_ID      = 2025-313Z
CENTER_NAME    = EARTH
REF_FRAME      = TEME
TIME_SYSTEM    = UTC
MEAN_ELEMENT_THEORY = SGP/SGP4

EPOCH          = 2026-01-08T12:57:21.299040
MEAN_MOTION    = 15.19955333
ECCENTRICITY   = .0015023
INCLINATION    = 97.4118
RA_OF_ASC_NODE = 85.8108
ARG_OF_PERICENTER = 195.6256
MEAN_ANOMALY   = 164.4518

EPHEMERIS_TYPE = 0
CLASSIFICATION_TYPE = U
NORAD_CAT_ID   = 67271
ELEMENT_SET_NO = 999
REV_AT_EPOCH   = 167
BSTAR          = .27205E-3
MEAN_MOTION_DOT = .5801E-4
MEAN_MOTION_DDOT = 0

CCSDS_OMM_VERS = 2.0
CREATION_DATE  = 
ORIGINATOR     = 

OBJECT_NAME    = 2025-313AA
OBJECT_ID      = 2025-313AA
CENTER_NAME    = EARTH
REF_FRAME      = TEME
TIME_SYSTEM    = UTC
MEAN_ELEMENT_THEORY = SGP/SGP4

EPOCH          = 2026-01-08T12:55:56.284032
MEAN_MOTION    = 15.20218619
ECCENTRICITY   = .0014813
INCLINATION    = 97.4123
RA_OF_ASC_NODE = 85.8104
ARG_OF_PERICENTER = 200.0380
MEAN_ANOMALY   = 160.0275

EPHEMERIS_TYPE = 0
CLASSIFICATION_TYPE = U
NORAD_CAT_ID   = 67272
ELEMENT_SET_NO = 999
REV_AT_EPOCH   = 167
BSTAR          = .72985E-3
MEAN_MOTION_DOT = .15818E-3
MEAN_MOTION_DDOT = 0

CCSDS_OMM_VERS = 2.0
CREATION_DATE  = 
ORIGINATOR     = 

OBJECT_NAME    = 2025-313AB
OBJECT_ID      = 2025-313AB
CENTER_NAME    = EARTH
REF_FRAME      = TEME
TIME_SYSTEM    = UTC
MEAN_ELEMENT_THEORY = SGP/SGP4

EPOCH          = 2026-01-08T12:57:07.195968
MEAN_MOTION    = 15.19956348
ECCENTRICITY   = .0013928
INCLINATION    = 97.4136
RA_OF_ASC_NODE = 85.8125
ARG_OF_PERICENTER = 204.4953
MEAN_ANOMALY   = 155.5622

EPHEMERIS_TYPE = 0
CLASSIFICATION_TYPE = U
NORAD_CAT_ID   = 67273
ELEMENT_SET_NO = 999
REV_AT_EPOCH   = 167
BSTAR          = .19682E-3
MEAN_MOTION_DOT = .4175E-4
MEAN_MOTION_DDOT = 0

CCSDS_OMM_VERS = 2.0
CREATION_DATE  = 
ORIGINATOR     = 

OBJECT_NAME    = 2025-313AC
OBJECT_ID      = 2025-313AC
CENTER_NAME    = EARTH
REF_FRAME      = TEME
TIME_SYSTEM    = UTC
MEAN_ELEMENT_THEORY = SGP/SGP4

EPOCH          = 2026-01-08T12:56:25.024992
MEAN_MOTION    = 15.20079413
ECCENTRICITY   = .0014732
INCLINATION    = 97.4112
RA_OF_ASC_NODE = 85.8183
ARG_OF_PERICENTER = 199.1958
MEAN_ANOMALY   = 160.8724

EPHEMERIS_TYPE = 0
CLASSIFICATION_TYPE = U
NORAD_CAT_ID   = 67274
ELEMENT_SET_NO = 999
REV_AT_EPOCH   = 167
BSTAR          = .39004E-3
MEAN_MOTION_DOT = .8378E-4
MEAN_MOTION_DDOT = 0

CCSDS_OMM_VERS = 2.0
CREATION_DATE  = 
ORIGINATOR     = 

OBJECT_NAME    = 2025-313AD
OBJECT_ID      = 2025-313AD
CENTER_NAME    = EARTH
REF_FRAME      = TEME
TIME_SYSTEM    = UTC
MEAN_ELEMENT_THEORY = SGP/SGP4

EPOCH          = 2026-01-08T11:21:05.236128
MEAN_MOTION    = 15.20133372
ECCENTRICITY   = .0013954
INCLINATION    = 97.4086
RA_OF_ASC_NODE = 85.7512
ARG_OF_PERICENTER = 202.3850
MEAN_ANOMALY   = 157.6778

EPHEMERIS_TYPE = 0
CLASSIFICATION_TYPE = U
NORAD_CAT_ID   = 67275
ELEMENT_SET_NO = 999
REV_AT_EPOCH   = 166
BSTAR          = .40102E-3
MEAN_MOTION_DOT = .8628E-4
MEAN_MOTION_DDOT = 0

CCSDS_OMM_VERS = 2.0
CREATION_DATE  = 
ORIGINATOR     = 

OBJECT_NAME    = 2025-313AE
OBJECT_ID      = 2025-313AE
CENTER_NAME    = EARTH
REF_FRAME      = TEME
TIME_SYSTEM    = UTC
MEAN_ELEMENT_THEORY = SGP/SGP4

EPOCH          = 2026-01-08T11:21:02.788416
MEAN_MOTION    = 15.20137092
ECCENTRICITY   = .0013877
INCLINATION    = 97.4091
RA_OF_ASC_NODE = 85.7511
ARG_OF_PERICENTER = 202.3658
MEAN_ANOMALY   = 157.6973

EPHEMERIS_TYPE = 0
CLASSIFICATION_TYPE = U
NORAD_CAT_ID   = 67276
ELEMENT_SET_NO = 999
REV_AT_EPOCH   = 166
BSTAR          = .40149E-3
MEAN_MOTION_DOT = .8638E-4
MEAN_MOTION_DDOT = 0

CCSDS_OMM_VERS = 2.0
CREATION_DATE  = 
ORIGINATOR     = 

OBJECT_NAME    = 2025-313AF
OBJECT_ID      = 2025-313AF
CENTER_NAME    = EARTH
REF_FRAME      = TEME
TIME_SYSTEM    = UTC
MEAN_ELEMENT_THEORY = SGP/SGP4

EPOCH          = 2026-01-08T12:55:57.599904
MEAN_MOTION    = 15.20111886
ECCENTRICITY   = .001387
INCLINATION    = 97.4094
RA_OF_ASC_NODE = 85.8163
ARG_OF_PERICENTER = 202.0359
MEAN_ANOMALY   = 158.0281

EPHEMERIS_TYPE = 0
CLASSIFICATION_TYPE = U
NORAD_CAT_ID   = 67277
ELEMENT_SET_NO = 999
REV_AT_EPOCH   = 167
BSTAR          = .365E-3
MEAN_MOTION_DOT = .7841E-4
MEAN_MOTION_DDOT = 0

CCSDS_OMM_VERS = 2.0
CREATION_DATE  = 
ORIGINATOR     = 

OBJECT_NAME    = 2025-313AG
OBJECT_ID      = 2025-313AG
CENTER_NAME    = EARTH
REF_FRAME      = TEME
TIME_SYSTEM    = UTC
MEAN_ELEMENT_THEORY = SGP/SGP4

EPOCH          = 2026-01-08T11:21:02.042784
MEAN_MOTION    = 15.20126006
ECCENTRICITY   = .0013833
INCLINATION    = 97.4096
RA_OF_ASC_NODE = 85.7523
ARG_OF_PERICENTER = 202.1263
MEAN_ANOMALY   = 157.9377

EPHEMERIS_TYPE = 0
CLASSIFICATION_TYPE = U
NORAD_CAT_ID   = 67278
ELEMENT_SET_NO = 999
REV_AT_EPOCH   = 167
BSTAR          = .37284E-3
MEAN_MOTION_DOT = .8014E-4
MEAN_MOTION_DDOT = 0

CCSDS_OMM_VERS = 2.0
CREATION_DATE  = 
ORIGINATOR     = 

OBJECT_NAME    = 2025-313AH
OBJECT_ID      = 2025-313AH
CENTER_NAME    = EARTH
REF_FRAME      = TEME
TIME_SYSTEM    = UTC
MEAN_ELEMENT_THEORY = SGP/SGP4

EPOCH          = 2026-01-08T11:20:35.958624
MEAN_MOTION    = 15.20188952
ECCENTRICITY   = .0014379
INCLINATION    = 97.4109
RA_OF_ASC_NODE = 85.7537
ARG_OF_PERICENTER = 199.1905
MEAN_ANOMALY   = 160.8791

EPHEMERIS_TYPE = 0
CLASSIFICATION_TYPE = U
NORAD_CAT_ID   = 67279
ELEMENT_SET_NO = 999
REV_AT_EPOCH   = 166
BSTAR          = .42376E-3
MEAN_MOTION_DOT = .9138E-4
MEAN_MOTION_DDOT = 0

CCSDS_OMM_VERS = 2.0
CREATION_DATE  = 
ORIGINATOR     = 

OBJECT_NAME    = 2025-313AJ
OBJECT_ID      = 2025-313AJ
CENTER_NAME    = EARTH
REF_FRAME      = TEME
TIME_SYSTEM    = UTC
MEAN_ELEMENT_THEORY = SGP/SGP4

EPOCH          = 2026-01-08T12:51:39.552480
MEAN_MOTION    = 15.20507390
ECCENTRICITY   = .0013303
INCLINATION    = 97.4176
RA_OF_ASC_NODE = 85.8195
ARG_OF_PERICENTER = 195.3334
MEAN_ANOMALY   = 164.7500

EPHEMERIS_TYPE = 0
CLASSIFICATION_TYPE = U
NORAD_CAT_ID   = 67280
ELEMENT_SET_NO = 999
REV_AT_EPOCH   = 167
BSTAR          = .27952E-3
MEAN_MOTION_DOT = .6055E-4
MEAN_MOTION_DDOT = 0

CCSDS_OMM_VERS = 2.0
CREATION_DATE  = 
ORIGINATOR     = 

OBJECT_NAME    = 2025-313AK
OBJECT_ID      = 2025-313AK
CENTER_NAME    = EARTH
REF_FRAME      = TEME
TIME_SYSTEM    = UTC
MEAN_ELEMENT_THEORY = SGP/SGP4

EPOCH          = 2026-01-08T12:50:43.473696
MEAN_MOTION    = 15.20598405
ECCENTRICITY   = .0012024
INCLINATION    = 97.4059
RA_OF_ASC_NODE = 85.8145
ARG_OF_PERICENTER = 193.9971
MEAN_ANOMALY   = 166.0933

EPHEMERIS_TYPE = 0
CLASSIFICATION_TYPE = U
NORAD_CAT_ID   = 67281
ELEMENT_SET_NO = 999
REV_AT_EPOCH   = 167
BSTAR          = .27933E-3
MEAN_MOTION_DOT = .6065E-4
MEAN_MOTION_DDOT = 0

